{
    "links": {
        "self": "http://www.neowsapp.com/rest/v1/neo/3786460?api_key=iIulBulltgU6a56xZRHN4H3l9WmuAYTsLGpBGhQ2"
    },
    "id": "3786460",
    "neo_reference_id": "3786460",
    "name": "(2017 UF)",
    "designation": "2017 UF",
    "nasa_jpl_url": "http://ssd.jpl.nasa.gov/sbdb.cgi?sstr=3786460",
    "absolute_magnitude_h": 27.9,
    "estimated_diameter": {
        "kilometers": {
            "estimated_diameter_min": 0.0069912523,
            "estimated_diameter_max": 0.0156329154
        },
        "meters": {
            "estimated_diameter_min": 6.9912523225,
            "estimated_diameter_max": 15.6329154409
        },
        "miles": {
            "estimated_diameter_min": 0.0043441614,
            "estimated_diameter_max": 0.0097138403
        },
        "feet": {
            "estimated_diameter_min": 22.9371802696,
            "estimated_diameter_max": 51.289094295
        }
    },
    "is_potentially_hazardous_asteroid": false,
    "close_approach_data": [
        {
            "close_approach_date": "2017-10-15",
            "close_approach_date_full": "2017-Oct-15 01:12",
            "epoch_date_close_approach": 1508029920000,
            "relative_velocity": {
                "kilometers_per_second": "23.9759465773",
                "kilometers_per_hour": "86313.4076781389",
                "miles_per_hour": "53631.7948986747"
            },
            "miss_distance": {
                "astronomical": "0.0046977213",
                "lunar": "1.8274135857",
                "kilometers": "702769.100333631",
                "miles": "436680.4698048678"
            },
            "orbiting_body": "Moon"
        },
        {
            "close_approach_date": "2017-10-15",
            "close_approach_date_full": "2017-Oct-15 03:23",
            "epoch_date_close_approach": 1508037780000,
            "relative_velocity": {
                "kilometers_per_second": "23.074395371",
                "kilometers_per_hour": "83067.8233355089",
                "miles_per_hour": "51615.1150053333"
            },
            "miss_distance": {
                "astronomical": "0.0025469988",
                "lunar": "0.9907825332",
                "kilometers": "381025.595372556",
                "miles": "236758.3263350328"
            },
            "orbiting_body": "Earth"
        },
        {
            "close_approach_date": "2132-10-18",
            "close_approach_date_full": "2132-Oct-18 20:34",
            "epoch_date_close_approach": 5137418040000,
            "relative_velocity": {
                "kilometers_per_second": "10.6924553759",
                "kilometers_per_hour": "38492.8393534128",
                "miles_per_hour": "23917.9534304581"
            },
            "miss_distance": {
                "astronomical": "1.7203668068",
                "lunar": "669.2226878452",
                "kilometers": "257363209.915981516",
                "miles": "159918083.1417402808"
            },
            "orbiting_body": "Juptr"
        }
    ],
    "orbital_data": {
        "orbit_id": "4",
        "orbit_determination_date": "2017-10-20 06:22:24",
        "first_observation_date": "2017-10-16",
        "last_observation_date": "2017-10-19",
        "data_arc_in_days": 3,
        "observations_used": 26,
        "orbit_uncertainty": "8",
        "minimum_orbit_intersection": ".000352689",
        "jupiter_tisserand_invariant": "2.941",
        "epoch_osculation": "2458043.5",
        "eccentricity": ".769218063954759",
        "semi_major_axis": "2.539860488923976",
        "inclination": ".5773324916386596",
        "ascending_node_longitude": "23.70102521513649",
        "orbital_period": "1478.472394593318",
        "perihelion_distance": ".5861539209186876",
        "perihelion_argument": "270.8517510759891",
        "aphelion_distance": "4.493567056929265",
        "perihelion_time": "2457997.252572830938",
        "mean_anomaly": "11.26099739281366",
        "mean_motion": ".2434945700146297",
        "equinox": "J2000",
        "orbit_class": {
            "orbit_class_type": "APO",
            "orbit_class_description": "Near-Earth asteroid orbits which cross the Earth’s orbit similar to that of 1862 Apollo",
            "orbit_class_range": "a (semi-major axis) > 1.0 AU; q (perihelion) < 1.017 AU"
        }
    },
    "is_sentry_object": false
}